[{"OBJECT_NAME":"GAOFEN-1 03","OBJECT_ID":"2018-031B","EPOCH":"2026-03-09T23:48:52.763904","MEAN_MOTION":14.76478861,"ECCENTRICITY":0.00036922,"INCLINATION":98.0633,"RA_OF_ASC_NODE":131.613,"ARG_OF_PERICENTER":51.6467,"MEAN_ANOMALY":308.5074,"EPHEMERIS_TYPE":0,"CLASSIFICATION_TYPE":"U","NORAD_CAT_ID":43260,"ELEMENT_SET_NO":999,"REV_AT_EPOCH":42805,"BSTAR":0.00016454166,"MEAN_MOTION_DOT":1.094e-5,"MEAN_MOTION_DDOT":0},{"OBJECT_NAME":"COSMOS 2512","OBJECT_ID":"2015-071B","EPOCH":"2026-03-09T22:11:03.351840","MEAN_MOTION":14.75269525,"ECCENTRICITY":0.00050302,"INCLINATION":98.0735,"RA_OF_ASC_NODE":91.631,"ARG_OF_PERICENTER":350.8727,"MEAN_ANOMALY":9.239,"EPHEMERIS_TYPE":0,"CLASSIFICATION_TYPE":"U","NORAD_CAT_ID":41099,"ELEMENT_SET_NO":999,"REV_AT_EPOCH":54851,"BSTAR":0.00056505364,"MEAN_MOTION_DOT":3.775e-5,"MEAN_MOTION_DDOT":0}]
